{
  "type": "FeatureCollection",
  "features": [
    {
      "type": "Feature",
      "properties": {
        "norad_id": 58701,
        "name": "TIANMU-1 16",
        "group": "weather",
        "lat": 5.518953794984594,
        "lon": -17.689517635973832,
        "alt_km": 498.0356872322527,
        "timestamp": "2025-12-06T16:45:42.370749+00:00",
        "meta_object_name": "TIANMU-1 16",
        "meta_object_id": "2024-004B",
        "meta_epoch": "2025-12-06T06:32:46.354272",
        "meta_mean_motion": 15.24301961,
        "meta_eccentricity": 0.00048818,
        "meta_inclination": 97.4562,
        "meta_ra_of_asc_node": 161.162,
        "meta_arg_of_pericenter": 323.5878,
        "meta_mean_anomaly": 36.5027,
        "meta_ephemeris_type": 0,
        "meta_classification_type": "U",
        "meta_norad_cat_id": 58701,
        "meta_element_set_no": 999,
        "meta_rev_at_epoch": 10636,
        "meta_bstar": 0.00048206576,
        "meta_mean_motion_dot": 0.00011721,
        "meta_mean_motion_ddot": 0,
        "tle_line1": "1 58701U 24004B   25340.27275873  .00011721  00000+0  48207-3 0  9991",
        "tle_line2": "2 58701  97.4562 161.1620 0004881 323.5878  36.5027 15.24301961106361"
      },
      "geometry": {
        "type": "Point",
        "coordinates": [
          -17.689517635973832,
          5.518953794984594
        ]
      }
    },
    {
      "type": "Feature",
      "properties": {
        "norad_id": 58702,
        "name": "TIANMU-1 17",
        "group": "weather",
        "lat": -75.76840183641211,
        "lon": -49.11401436278274,
        "alt_km": 499.0025229445755,
        "timestamp": "2025-12-06T16:45:42.370760+00:00",
        "meta_object_name": "TIANMU-1 17",
        "meta_object_id": "2024-004C",
        "meta_epoch": "2025-12-06T06:10:51.725568",
        "meta_mean_motion": 15.24346879,
        "meta_eccentricity": 0.00041114,
        "meta_inclination": 97.4598,
        "meta_ra_of_asc_node": 161.5536,
        "meta_arg_of_pericenter": 327.4727,
        "meta_mean_anomaly": 32.6257,
        "meta_ephemeris_type": 0,
        "meta_classification_type": "U",
        "meta_norad_cat_id": 58702,
        "meta_element_set_no": 999,
        "meta_rev_at_epoch": 10635,
        "meta_bstar": 0.00049253623,
        "meta_mean_motion_dot": 0.00011993,
        "meta_mean_motion_ddot": 0,
        "tle_line1": "1 58702U 24004C   25340.25754312  .00011993  00000+0  49254-3 0  9994",
        "tle_line2": "2 58702  97.4598 161.5536 0004111 327.4727  32.6257 15.24346879106351"
      },
      "geometry": {
        "type": "Point",
        "coordinates": [
          -49.11401436278274,
          -75.76840183641211
        ]
      }
    },
    {
      "type": "Feature",
      "properties": {
        "norad_id": 58703,
        "name": "TIANMU-1 18",
        "group": "weather",
        "lat": -10.393827183232395,
        "lon": 163.5639206463848,
        "alt_km": 494.88912726576564,
        "timestamp": "2025-12-06T16:45:42.370770+00:00",
        "meta_object_name": "TIANMU-1 18",
        "meta_object_id": "2024-004D",
        "meta_epoch": "2025-12-06T07:21:17.565120",
        "meta_mean_motion": 15.24339056,
        "meta_eccentricity": 0.00034366,
        "meta_inclination": 97.4616,
        "meta_ra_of_asc_node": 161.7962,
        "meta_arg_of_pericenter": 329.4028,
        "meta_mean_anomaly": 30.7009,
        "meta_ephemeris_type": 0,
        "meta_classification_type": "U",
        "meta_norad_cat_id": 58703,
        "meta_element_set_no": 999,
        "meta_rev_at_epoch": 10636,
        "meta_bstar": 0.00045296159,
        "meta_mean_motion_dot": 0.00011019,
        "meta_mean_motion_ddot": 0,
        "tle_line1": "1 58703U 24004D   25340.30645330  .00011019  00000+0  45296-3 0  9991",
        "tle_line2": "2 58703  97.4616 161.7962 0003436 329.4028  30.7009 15.24339056106367"
      },
      "geometry": {
        "type": "Point",
        "coordinates": [
          163.5639206463848,
          -10.393827183232395
        ]
      }
    },
    {
      "type": "Feature",
      "properties": {
        "norad_id": 58990,
        "name": "INSAT-3DS",
        "group": "weather",
        "lat": 0.01814146498809224,
        "lon": 49.252337636146095,
        "alt_km": 35792.82447376934,
        "timestamp": "2025-12-06T16:45:42.370782+00:00",
        "meta_object_name": "INSAT-3DS",
        "meta_object_id": "2024-033A",
        "meta_epoch": "2025-12-06T03:46:58.309248",
        "meta_mean_motion": 1.0026975,
        "meta_eccentricity": 0.00017349,
        "meta_inclination": 0.0132,
        "meta_ra_of_asc_node": 36.24,
        "meta_arg_of_pericenter": 226.2315,
        "meta_mean_anomaly": 311.5683,
        "meta_ephemeris_type": 0,
        "meta_classification_type": "U",
        "meta_norad_cat_id": 58990,
        "meta_element_set_no": 999,
        "meta_rev_at_epoch": 4513,
        "meta_bstar": 0,
        "meta_mean_motion_dot": -1.47e-06,
        "meta_mean_motion_ddot": 0,
        "tle_line1": "1 58990U 24033A   25340.15761932 -.00000147  00000+0  00000+0 0  9992",
        "tle_line2": "2 58990   0.0132  36.2400 0001734 226.2315 311.5683  1.00269750 45130"
      },
      "geometry": {
        "type": "Point",
        "coordinates": [
          49.252337636146095,
          0.01814146498809224
        ]
      }
    },
    {
      "type": "Feature",
      "properties": {
        "norad_id": 59051,
        "name": "METEOR-M2 4",
        "group": "weather",
        "lat": -38.59726277375006,
        "lon": 110.70182428324023,
        "alt_km": 828.5323725038224,
        "timestamp": "2025-12-06T16:45:42.370794+00:00",
        "meta_object_name": "METEOR-M2 4",
        "meta_object_id": "2024-039A",
        "meta_epoch": "2025-12-06T07:17:38.019264",
        "meta_mean_motion": 14.22399757,
        "meta_eccentricity": 0.00074002,
        "meta_inclination": 98.6758,
        "meta_ra_of_asc_node": 297.314,
        "meta_arg_of_pericenter": 16.7463,
        "meta_mean_anomaly": 343.3958,
        "meta_ephemeris_type": 0,
        "meta_classification_type": "U",
        "meta_norad_cat_id": 59051,
        "meta_element_set_no": 999,
        "meta_rev_at_epoch": 9184,
        "meta_bstar": 6.2291167e-05,
        "meta_mean_motion_dot": 9.5e-07,
        "meta_mean_motion_ddot": 0,
        "tle_line1": "1 59051U 24039A   25340.30391226  .00000095  00000+0  62291-4 0  9995",
        "tle_line2": "2 59051  98.6758 297.3140 0007400  16.7463 343.3958 14.22399757 91845"
      },
      "geometry": {
        "type": "Point",
        "coordinates": [
          110.70182428324023,
          -38.59726277375006
        ]
      }
    },
    {
      "type": "Feature",
      "properties": {
        "norad_id": 60133,
        "name": "GOES 19",
        "group": "weather",
        "lat": -0.004019057358198808,
        "lon": -108.04808388773061,
        "alt_km": 35782.51274871812,
        "timestamp": "2025-12-06T16:45:42.370806+00:00",
        "meta_object_name": "GOES 19",
        "meta_object_id": "2024-119A",
        "meta_epoch": "2025-12-06T06:27:38.480832",
        "meta_mean_motion": 1.00270174,
        "meta_eccentricity": 0.00014311,
        "meta_inclination": 0.0049,
        "meta_ra_of_asc_node": 245.6663,
        "meta_arg_of_pericenter": 54.2523,
        "meta_mean_anomaly": 157.1198,
        "meta_ephemeris_type": 0,
        "meta_classification_type": "U",
        "meta_norad_cat_id": 60133,
        "meta_element_set_no": 999,
        "meta_rev_at_epoch": 503,
        "meta_bstar": 0,
        "meta_mean_motion_dot": -2.4e-06,
        "meta_mean_motion_ddot": 0,
        "tle_line1": "1 60133U 24119A   25340.26919538 -.00000240  00000+0  00000+0 0  9992",
        "tle_line2": "2 60133   0.0049 245.6663 0001431  54.2523 157.1198  1.00270174  5032"
      },
      "geometry": {
        "type": "Point",
        "coordinates": [
          -108.04808388773061,
          -0.004019057358198808
        ]
      }
    },
    {
      "type": "Feature",
      "properties": {
        "norad_id": 65815,
        "name": "FENGYUN 3H",
        "group": "weather",
        "lat": 27.334721498950625,
        "lon": 104.93724543302208,
        "alt_km": 824.4156834521391,
        "timestamp": "2025-12-06T16:45:42.370817+00:00",
        "meta_object_name": "FENGYUN 3H",
        "meta_object_id": "2025-219A",
        "meta_epoch": "2025-12-06T07:35:28.357152",
        "meta_mean_motion": 14.19902016,
        "meta_eccentricity": 6.155e-05,
        "meta_inclination": 98.6575,
        "meta_ra_of_asc_node": 280.0465,
        "meta_arg_of_pericenter": 77.0575,
        "meta_mean_anomaly": 283.067,
        "meta_ephemeris_type": 0,
        "meta_classification_type": "U",
        "meta_norad_cat_id": 65815,
        "meta_element_set_no": 999,
        "meta_rev_at_epoch": 1001,
        "meta_bstar": 0.00012863918,
        "meta_mean_motion_dot": 2.3e-06,
        "meta_mean_motion_ddot": 0,
        "tle_line1": "1 65815U 25219A   25340.31630043  .00000230  00000+0  12864-3 0  9996",
        "tle_line2": "2 65815  98.6575 280.0465 0000615  77.0575 283.0670 14.19902016 10016"
      },
      "geometry": {
        "type": "Point",
        "coordinates": [
          104.93724543302208,
          27.334721498950625
        ]
      }
    }
  ]
}